{
    "CCSDS_OMM_VERS": "3.0",
    "COMMENT": "GENERATED VIA SPACE-TRACK.ORG API",
    "CREATION_DATE": "2025-11-23T14:26:32",
    "ORIGINATOR": "18 SPCS",
    "OBJECT_NAME": "COSMOS 2501 (GLONASS)",
    "OBJECT_ID": "2014-075A",
    "CENTER_NAME": "EARTH",
    "REF_FRAME": "TEME",
    "TIME_SYSTEM": "UTC",
    "MEAN_ELEMENT_THEORY": "SGP4",
    "EPOCH": "2025-11-23T07:06:08.859168",
    "MEAN_MOTION": "2.13101402",
    "ECCENTRICITY": "0.00202280",
    "INCLINATION": "63.6135",
    "RA_OF_ASC_NODE": "197.4986",
    "ARG_OF_PERICENTER": "205.2109",
    "MEAN_ANOMALY": "154.7869",
    "EPHEMERIS_TYPE": "0",
    "CLASSIFICATION_TYPE": "U",
    "NORAD_CAT_ID": "40315",
    "ELEMENT_SET_NO": "999",
    "REV_AT_EPOCH": "8546",
    "BSTAR": "0.00000000000000",
    "MEAN_MOTION_DOT": "0.00000063",
    "MEAN_MOTION_DDOT": "0.0000000000000",
    "SEMIMAJOR_AXIS": "25508.072",
    "PERIOD": "675.735",
    "APOAPSIS": "19181.535",
    "PERIAPSIS": "19078.339",
    "OBJECT_TYPE": "PAYLOAD",
    "RCS_SIZE": "LARGE",
    "COUNTRY_CODE": "CIS",
    "LAUNCH_DATE": "2014-11-30",
    "SITE": "PKMTR",
    "DECAY_DATE": null,
    "FILE": "4895617",
    "GP_ID": "303302819",
    "TLE_LINE0": "0 COSMOS 2501 (GLONASS)",
    "TLE_LINE1": "1 40315U 14075A   25327.29593587  .00000063  00000-0  00000+0 0  9995",
    "TLE_LINE2": "2 40315  63.6135 197.4986 0020228 205.2109 154.7869  2.13101402 85463"
}